KUIPER-00016            
1 63732U 25088J   25209.76443120 -.00201681  00000+0 -11805-1 0  9994
2 63732  51.8847  24.4774 0010870  68.0996 292.1134 15.12267091 14133
KUIPER-00018            
1 63733U 25088K   25210.58335648 -.00951837  00000+0 -37769-1 0  9994
2 63733  51.8752  15.9179 0006272  76.4977 301.1114 15.27396877 14327
KUIPER-00019            
1 63734U 25088L   25209.76315932  .00005664  00000+0  16703-3 0  9990
2 63734  51.8691  19.4332 0003899  93.0410 267.1023 15.36527448 14206
KUIPER-00020            
1 63735U 25088M   25210.58335648 -.00592352  00000+0 -26541-1 0  9995
2 63735  51.8803  16.6798 0007831  68.1811 265.2400 15.22997180 14516
KUIPER-00021            
1 63736U 25088N   25210.58335648 -.00711516  00000+0 -34267-1 0  9995
2 63736  51.8728  17.1912 0005290  79.7327  33.3758 15.20632454 14343
KUIPER-00023            
1 63737U 25088P   25210.58335648 -.00037715  00000+0 -18373-2 0  9999
2 63737  51.8792  17.8612 0009912  78.0578  76.4266 15.17717478 14634
KUIPER-00024            
1 63738U 25088Q   25210.47320608  .00019136  00000+0  50450-3 0  9996
2 63738  51.8722  15.2273 0001318 110.1081 250.0048 15.38518040 14794
KUIPER-00025            
1 63739U 25088R   25210.25002315  .00001983  00000+0  87091-4 0  9998
2 63739  51.8745  17.5769 0007989  62.9053 210.1864 15.26884871 14594
